GLOBALSTAR M094 [+]     
1 39074U 13005C   23256.91524898 -.00000080  00000+0  13517-3 0  9994
2 39074  51.9984 337.6491 0000385  92.4407 267.6503 12.62267298491262
GLOBALSTAR M096 [+]     
1 39075U 13005D   23256.53236824 -.00000101  00000+0  13996-4 0  9998
2 39075  52.0097  26.8228 0000385  86.2322 273.8589 12.62268350490130
GLOBALSTAR M078 [+]     
1 39076U 13005E   23255.79302815 -.00000187  00000+0 -46650-3 0  9997
2 39076  51.9867 114.4572 0000834 154.6745 205.4162 12.62269502488661
GLOBALSTAR M095 [+]     
1 39077U 13005F   23256.84934743 -.00000067  00000+0  20280-3 0  9993
2 39077  51.9789 108.7600 0000220 137.0821 223.0063 12.62268825488654
GLOBALSTAR M087 [+]     
1 52888U 22064A   23256.81013531 -.00000082  00000+0  88509-4 0  9999
2 52888  51.9753  95.5648 0009910  24.5660 335.5711 13.37552499 60405
